IRIDIUM 33 DEB          
1 34091U 97051DA  17345.90600631  .00001303  00000-0  48749-3 0  9996
2 34091  86.3713 229.9467 0063528 206.6730 276.8640 14.29983043458164
